SCD 1                   
1 22490U 93009B   26199.56254374  .00000293  00000+0  29219-4 0  9991
2 22490  24.9707  13.8501 0042075 110.0045 302.2246 14.46129363765663
TECHSAT 1B (GO-32)      
1 25397U 98043D   26198.97124761  .00000003  00000+0  21480-4 0  9994
2 25397  99.0087 192.5089 0002266 110.8541 249.2880 14.24433657455715
SCD 2                   
1 25504U 98060A   26199.80439781  .00000255  00000+0  20366-4 0  9998
2 25504  24.9940 237.1785 0017003  97.0700  63.7948 14.45535401464905
DLR-TUBSAT              
1 25757U 99029B   26199.84509677  .00000002  00000+0  12519-4 0  9991
2 25757  98.6713 196.3936 0013022 252.6752 107.3018 14.52433660437846
TERRA                   
1 25994U 99068A   26199.80267962  .00000157  00000+0  40867-4 0  9999
2 25994  97.9439 248.0926 0003541 115.7251 355.8160 14.61125268414225
MAROC-TUBSAT            
1 27004U 01056D   26199.46578654 -.00000041  00000+0  64738-5 0  9995
2 27004  99.8101  16.9174 0020554  64.0317 325.6217 13.70263603230471
AQUA                    
1 27424U 02022A   26199.86910771  .00000313  00000+0  72096-4 0  9995
2 27424  98.4299 169.7895 0001254 101.6287 288.6634 14.62131328287908
SHIYAN-1 (SY-1)         
1 28220U 04012A   26199.81720873  .00006396  00000+0  19399-3 0  9991
2 28220  97.8677 279.9577 0004195 257.9473 102.1299 15.34504790215945
AURA                    
1 28376U 04026A   26199.82479501  .00000347  00000+0  79964-4 0  9993
2 28376  98.3432 156.5439 0001372  93.9382 266.1975 14.61370724170837
IRS-P5 (CARTOSAT-1)     
1 28649U 05017A   26199.81978110  .00000682  00000+0  74080-4 0  9992
2 28649  97.5306 221.4497 0001153  51.8210 308.3113 14.91122429148532
SINAH 1                 
1 28893U 05043D   26199.83171949  .00000126  00000+0  33266-4 0  9993
2 28893  98.2899 334.3467 0014655 172.2342 187.9089 14.64176773105159
RESURS-DK 1             
1 29228U 06021A   26199.56535780  .00000867  00000+0  54664-4 0  9997
2 29228  69.9303 258.3198 0007303 267.3280  92.7050 15.13325666107326
ARIRANG-2 (KOMPSAT-2)   
1 29268U 06031A   26199.86984047  .00000402  00000+0  84018-4 0  9990
2 29268  97.8314  22.7845 0013921 338.9669 161.4498 14.64677792 66119
LAPAN-TUBSAT            
1 29709U 07001A   26199.83555860  .00000713  00000+0  88076-4 0  9995
2 29709  98.1355 199.7755 0013673  83.2529 277.0241 14.85980623 55854
HAIYANG-1B              
1 31113U 07010A   26199.88849152  .00000036  00000+0  29333-4 0  9991
2 31113  98.3517 180.5073 0014760 105.7218 254.5595 14.31033902  5174
COSMO-SKYMED 1          
1 31598U 07023A   26199.81428354  .00001588  00000+0  14240-3 0  9995
2 31598  97.8850  31.9380 0001707 100.1552 259.9862 14.97230695 34529
TERRASAR-X              
1 31698U 07026A   26199.41329748  .00000174  00000+0  11467-4 0  9991
2 31698  97.4454 206.6756 0001859  78.4405 281.7038 15.19149093 57963
WORLDVIEW-1 (WV-1)      
1 32060U 07041A   26199.86495825  .00003100  00000+0  12871-3 0  9992
2 32060  97.3907 319.1657 0001885 190.6952 169.4246 15.24581976 47702
YAOGAN-3                
1 32289U 07055A   26199.87400045  .00000309  00000+0  37001-4 0  9992
2 32289  97.8139 229.4388 0001407  78.5965 281.5411 14.90886698 10597
COSMO-SKYMED 2          
1 32376U 07059A   26199.82349256  .00000143  00000+0  24587-4 0  9995
2 32376  97.8896  22.9640 0001451  93.9299 266.2079 14.82151988  6695
RADARSAT-2              
1 32382U 07061A   26199.87455532 -.00000204  00000+0 -62056-4 0  9998
2 32382  98.5783 206.3549 0001329  85.0497 275.0837 14.29982948970483
CARTOSAT-2A             
1 32783U 08021A   26199.83853211  .00000554  00000+0  81157-4 0  9991
2 32783  97.7611 247.4644 0012166  16.1933 343.9665 14.79279922983486
HUANJING 1A (HJ-1A)     
1 33320U 08041A   26199.85647432  .00001043  00000+0  13090-3 0  9993
2 33320  97.6703 184.4742 0020093  38.4724 321.7918 14.84055279963102
HUANJING 1B (HJ-1B)     
1 33321U 08041B   26199.90756324  .00000108  00000+0  19233-4 0  9998
2 33321  97.6538 187.5986 0037939  79.5911 280.9576 14.83367415963118
GEOEYE 1                
1 33331U 08042A   26199.78204676  .00000178  00000+0  42444-4 0  9991
2 33331  98.1325 273.3358 0003696 333.8443  26.2572 14.64651003954772
THEOS                   
1 33396U 08049A   26199.88529492 -.00000366  00000+0 -15185-3 0  9998
2 33396  98.5550 256.1370 0001130  89.1312 270.9994 14.20135684922468
COSMO-SKYMED 3          
1 33412U 08054A   26199.88070313  .00002468  00000+0  16823-3 0  9999
2 33412  97.8246  58.9747 0016049 154.1115 206.0918 15.07132497961718
YAOGAN-4                
1 33446U 08061A   26199.80653691  .00000458  00000+0  62562-4 0  9991
2 33446  97.9302 133.0847 0013531 333.4296  26.6222 14.83255048950353
GOSAT (IBUKI)           
1 33492U 09002A   26199.77488361  .00000267  00000+0  55646-4 0  9997
2 33492  98.0915 310.4641 0001124  89.5225 270.6108 14.67541977936095
DEIMOS-1                
1 35681U 09041A   26199.86124464  .00000137  00000+0  27340-4 0  9999
2 35681  97.7441 355.7217 0002803  87.5558 272.5973 14.75265297911552
DUBAISAT-1              
1 35682U 09041B   26199.83384733  .00000370  00000+0  62260-4 0  9993
2 35682  98.0090 332.7522 0009641 336.4482  23.6284 14.75169773909762
